[{"OBJECT_NAME":"STARLINK-31470","OBJECT_ID":"2024-076F","EPOCH":"2026-03-09T05:48:55.980576","MEAN_MOTION":15.27568468,"ECCENTRICITY":0.00015179,"INCLINATION":43.0015,"RA_OF_ASC_NODE":8.1268,"ARG_OF_PERICENTER":254.4295,"MEAN_ANOMALY":105.639,"EPHEMERIS_TYPE":0,"CLASSIFICATION_TYPE":"U","NORAD_CAT_ID":59569,"ELEMENT_SET_NO":999,"REV_AT_EPOCH":10638,"BSTAR":-0.00012461591,"MEAN_MOTION_DOT":-3.688e-5,"MEAN_MOTION_DDOT":0},{"OBJECT_NAME":"OTTER","OBJECT_ID":"2025-009Q","EPOCH":"2026-03-09T17:21:07.902432","MEAN_MOTION":15.27809545,"ECCENTRICITY":0.00035728,"INCLINATION":97.4065,"RA_OF_ASC_NODE":151.3812,"ARG_OF_PERICENTER":310.771,"MEAN_ANOMALY":49.3219,"EPHEMERIS_TYPE":0,"CLASSIFICATION_TYPE":"U","NORAD_CAT_ID":62623,"ELEMENT_SET_NO":999,"REV_AT_EPOCH":6372,"BSTAR":0.00045151206,"MEAN_MOTION_DOT":0.00012198,"MEAN_MOTION_DDOT":0}]
